norad_id,name,regime,epoch,line1,line2,inclination,eccentricity,mean_motion,raan,arg_pericenter,mean_anomaly
43231,O3B FM15,MEO,23350.79222094,1 43231U 18024A   23350.79222094 -.00000011  00000-0  00000-0 0    13,2 43231   0.0462 359.2099 0002677 264.0822  96.6793  5.00114576105320,0.0462,0.0002677,5.00114576,359.2099,264.0822,96.6793
43231,O3B FM15,MEO,23351.59178418,1 43231U 18024A   23351.59178418 -.00000012  00000-0  00000-0 0    13,2 43231   0.0462 359.2389 0002677 264.7171  96.0149  5.00114593105368,0.0462,0.0002677,5.00114593,359.2389,264.7171,96.0149
43231,O3B FM15,MEO,23351.79167514,1 43231U 18024A   23351.79167514 -.00000012  00000-0  00000-0 0    10,2 43231   0.0462 359.2273 0002677 264.9453  95.7982  5.00114587105370,0.0462,0.0002677,5.00114587,359.2273,264.9453,95.7982
43231,O3B FM15,MEO,23352.39134790,1 43231U 18024A   23352.39134790 -.00000013  00000-0  00000-0 0    18,2 43231   0.0461 359.2289 0002678 265.4033  95.3384  5.00114579105404,0.0461,0.0002678,5.00114579,359.2289,265.4033,95.3384
43231,O3B FM15,MEO,23352.59123871,1 43231U 18024A   23352.59123871 -.00000013  00000-0  00000-0 0    18,2 43231   0.0461 359.2508 0002678 265.7134  95.0063  5.00114585105423,0.0461,0.0002678,5.00114585,359.2508,265.7134,95.0063
43231,O3B FM15,MEO,23353.39080260,1 43231U 18024A   23353.39080260 -.00000013  00000-0  00000-0 0    11,2 43231   0.0461 359.2321 0002678 266.4290  94.3092  5.00114567105454,0.0461,0.0002678,5.00114567,359.2321,266.429,94.3092
43231,O3B FM15,MEO,23354.39025686,1 43231U 18024A   23354.39025686 -.00000014  00000-0  00000-0 0    14,2 43231   0.0460 359.2391 0002678 267.4456  93.2854  5.00114597105508,0.046,0.0002678,5.00114597,359.2391,267.4456,93.2854
43231,O3B FM15,MEO,23354.79003869,1 43231U 18024A   23354.79003869 -.00000014  00000-0  00000-0 0    17,2 43231   0.0460 359.2412 0002678 267.8439  92.8848  5.00114601105523,0.046,0.0002678,5.00114601,359.2412,267.8439,92.8848
43231,O3B FM15,MEO,23354.98992986,1 43231U 18024A   23354.98992986 -.00000014  00000-0  00000+0 0  4962,2 43231   0.0460 359.2420 0002679 267.9515  92.7765  5.00114582105726,0.046,0.0002679,5.00114582,359.242,267.9515,92.7765
43231,O3B FM15,MEO,23355.18982070,1 43231U 18024A   23355.18982070 -.00000014  00000-0  00000-0 0    11,2 43231   0.0460 359.2433 0002678 268.1948  92.5318  5.00114591105544,0.046,0.0002678,5.00114591,359.2433,268.1948,92.5318
43231,O3B FM15,MEO,23355.78949328,1 43231U 18024A   23355.78949328 -.00000015  00000-0  00000-0 0    17,2 43231   0.0460 359.2471 0002678 268.9630  91.7597  5.00114610105577,0.046,0.0002678,5.0011461,359.2471,268.963,91.7597
43231,O3B FM15,MEO,23356.38916618,1 43231U 18024A   23356.38916618 -.00000016  00000-0  00000-0 0    11,2 43231   0.0459 359.2512 0002678 269.6393  91.0792  5.00114604105602,0.0459,0.0002678,5.00114604,359.2512,269.6393,91.0792
43231,O3B FM15,MEO,23356.78894800,1 43231U 18024A   23356.78894800 -.00000016  00000-0  00000-0 0    13,2 43231   0.0459 359.2546 0002678 270.0864  90.6286  5.00114608105627,0.0459,0.0002678,5.00114608,359.2546,270.0864,90.6286
43231,O3B FM15,MEO,23357.38862059,1 43231U 18024A   23357.38862059 -.00000017  00000-0  00000-0 0    12,2 43231   0.0459 359.2598 0002678 270.8267  89.8829  5.00114626105655,0.0459,0.0002678,5.00114626,359.2598,270.8267,89.8829
43231,O3B FM15,MEO,23357.58851146,1 43231U 18024A   23357.58851146 -.00000018  00000-0  00000-0 0    10,2 43231   0.0459 359.2636 0002678 270.8375  89.8683  5.00114628105669,0.0459,0.0002678,5.00114628,359.2636,270.8375,89.8683
43231,O3B FM15,MEO,23358.38807495,1 43231U 18024A   23358.38807495 -.00000019  00000-0  00000-0 0    18,2 43231   0.0459 359.2835 0002678 271.4100  89.2756  5.00114642105710,0.0459,0.0002678,5.00114642,359.2835,271.41,89.2756
43231,O3B FM15,MEO,23358.58796581,1 43231U 18024A   23358.58796581 -.00000019  00000-0  00000-0 0    13,2 43231   0.0458 359.2868 0002678 271.6100  89.0722  5.00114645105722,0.0458,0.0002678,5.00114645,359.2868,271.61,89.0722
43231,O3B FM15,MEO,23359.38752950,1 43231U 18024A   23359.38752950 -.00000021  00000-0  00000-0 0    17,2 43231   0.0458 359.3031 0002677 272.3136  88.3519  5.00114642105768,0.0458,0.0002677,5.00114642,359.3031,272.3136,88.3519
43231,O3B FM15,MEO,23359.58742034,1 43231U 18024A   23359.58742034 -.00000021  00000-0  00000-0 0    11,2 43231   0.0458 359.3048 0002677 272.4983  88.1654  5.00114647105771,0.0458,0.0002677,5.00114647,359.3048,272.4983,88.1654
43231,O3B FM15,MEO,23360.38698385,1 43231U 18024A   23360.38698385 -.00000022  00000-0  00000-0 0    11,2 43231   0.0458 359.3665 0002678 273.5311  87.0706  5.00114662105812,0.0458,0.0002678,5.00114662,359.3665,273.5311,87.0706
43231,O3B FM15,MEO,23360.58687473,1 43231U 18024A   23360.58687473 -.00000023  00000-0  00000-0 0    10,2 43231   0.0458 359.3715 0002678 273.7264  86.8702  5.00114664105823,0.0458,0.0002678,5.00114664,359.3715,273.7264,86.8702
43231,O3B FM15,MEO,23361.38643817,1 43231U 18024A   23361.38643817 -.00000023  00000-0  00000-0 0    13,2 43231   0.0458 359.3756 0002679 274.6072  85.9850  5.00114682105864,0.0458,0.0002679,5.00114682,359.3756,274.6072,85.985
43231,O3B FM15,MEO,23362.58578331,1 43231U 18024A   23362.58578331 -.00000024  00000-0  00000-0 0    15,2 43231   0.0457 359.3160 0002678 276.0340  84.6176  5.00114716105927,0.0457,0.0002678,5.00114716,359.316,276.034,84.6176
43231,O3B FM15,MEO,23363.58523779,1 43231U 18024A   23363.58523779 -.00000023  00000-0  00000+0 0  4980,2 43231   0.0457 359.3853 0002684 276.9259  83.6562  5.00114728106158,0.0457,0.0002684,5.00114728,359.3853,276.9259,83.6562
43231,O3B FM15,MEO,23363.58523793,1 43231U 18024A   23363.58523793 -.00000023  00000-0  00000-0 0    17,2 43231   0.0457 359.3142 0002682 277.1366  83.5167  5.00114717105965,0.0457,0.0002682,5.00114717,359.3142,277.1366,83.5167
43231,O3B FM15,MEO,23363.78512873,1 43231U 18024A   23363.78512873 -.00000023  00000-0  00000-0 0    16,2 43231   0.0457 359.3276 0002683 277.1360  83.5039  5.00114727105989,0.0457,0.0002683,5.00114727,359.3276,277.136,83.5039
43231,O3B FM15,MEO,23364.58469254,1 43231U 18024A   23364.58469254 -.00000022  00000-0  00000-0 0    18,2 43231   0.0457 359.3144 0002683 277.9378  82.7153  5.00114724106010,0.0457,0.0002683,5.00114724,359.3144,277.9378,82.7153
43231,O3B FM15,MEO,23364.78458344,1 43231U 18024A   23364.78458344 -.00000022  00000-0  00000-0 0    18,2 43231   0.0457 359.3313 0002683 278.1383  82.4980  5.00114730106031,0.0457,0.0002683,5.0011473,359.3313,278.1383,82.498
43231,O3B FM15,MEO,24001.38371131,1 43231U 18024A   24001.38371131 -.00000018  00000-0  00000-0 0    16\,2 43231   0.0456 359.3731 0002680 279.8567  80.7384  5.00114716106115,0.0456,0.000268,5.00114716,359.3731,279.8567,80.7384
43231,O3B FM15,MEO,24002.18327493,1 43231U 18024A   24002.18327493 -.00000016  00000-0  00000-0 0    15\,2 43231   0.0456 359.3779 0002678 280.6812  79.9096  5.00114735106152,0.0456,0.0002678,5.00114735,359.3779,280.6812,79.9096
43231,O3B FM15,MEO,24003.18272991,1 43231U 18024A   24003.18272991 -.00000014  00000-0  00000+0 0  4996\,2 43231   0.0456 359.3658 0002678 281.6520  78.9515  5.00114723106382,0.0456,0.0002678,5.00114723,359.3658,281.652,78.9515
43231,O3B FM15,MEO,24003.58251179,1 43231U 18024A   24003.58251179 -.00000013  00000-0  00000-0 0    14\,2 43231   0.0455 359.3679 0002679 282.2516  78.3501  5.00114726106222,0.0455,0.0002679,5.00114726,359.3679,282.2516,78.3501
43231,O3B FM15,MEO,24004.38207509,1 43231U 18024A   24004.38207509 -.00000011  00000-0  00000-0 0    19\,2 43231   0.0455 359.3209 0002675 283.2251  77.4241  5.00114767106264,0.0455,0.0002675,5.00114767,359.3209,283.2251,77.4241
43231,O3B FM15,MEO,24005.38153016,1 43231U 18024A   24005.38153016 -.00000010  00000-0  00000-0 0    12\,2 43231   0.0455 359.3017 0002675 284.3356  76.3332  5.00114736106310,0.0455,0.0002675,5.00114736,359.3017,284.3356,76.3332
43231,O3B FM15,MEO,24005.98120324,1 43231U 18024A   24005.98120324 -.00000009  00000-0  00000-0 0    12\,2 43231   0.0455 359.3958 0002676 285.1436  75.4314  5.00114712106340,0.0455,0.0002676,5.00114712,359.3958,285.1436,75.4314
43231,O3B FM15,MEO,24006.78076686,1 43231U 18024A   24006.78076686 -.00000008  00000-0  00000-0 0    11\,2 43231   0.0455 359.3441 0002672 285.8477  74.7792  5.00114714106383,0.0455,0.0002672,5.00114714,359.3441,285.8477,74.7792
43231,O3B FM15,MEO,24007.58033082,1 43231U 18024A   24007.58033082 -.00000008  00000-0  00000-0 0    13\,2 43231   0.0455 359.3349 0002666 286.2646  74.3715  5.00114680106424,0.0455,0.0002666,5.0011468,359.3349,286.2646,74.3715
43231,O3B FM15,MEO,24007.78022160,1 43231U 18024A   24007.78022160 -.00000008  00000-0  00000+0 0  5003\,2 43231   0.0455 359.3145 0002666 286.4134  74.2431  5.00114687106614,0.0455,0.0002666,5.00114687,359.3145,286.4134,74.2431
43231,O3B FM15,MEO,24007.78022170,1 43231U 18024A   24007.78022170 -.00000008  00000-0  00000-0 0    11\,2 43231   0.0455 359.3739 0002667 286.4534  74.1438  5.00114678106434,0.0455,0.0002667,5.00114678,359.3739,286.4534,74.1438
43231,O3B FM15,MEO,24007.98011248,1 43231U 18024A   24007.98011248 -.00000008  00000-0  00000-0 0    17\,2 43231   0.0455 359.3766 0002666 286.5878  74.0067  5.00114685106441,0.0455,0.0002666,5.00114685,359.3766,286.5878,74.0067
43231,O3B FM15,MEO,24009.57923955,1 43231U 18024A   24009.57923955 -.00000008  00000-0  00000-0 0    11\,2 43231   0.0455 359.3674 0002663 288.0838  72.5193  5.00114663106516,0.0455,0.0002663,5.00114663,359.3674,288.0838,72.5193
43231,O3B FM15,MEO,24009.77913034,1 43231U 18024A   24009.77913034 -.00000009  00000-0  00000-0 0    11\,2 43231   0.0455 359.4290 0002662 288.0878  72.4536  5.00114664106537,0.0455,0.0002662,5.00114664,359.429,288.0878,72.4536
43231,O3B FM15,MEO,24010.37880263,1 43231U 18024A   24010.37880263 -.00000009  00000-0  00000-0 0    16\,2 43231   0.0455 359.3910 0002661 288.6106  71.9684  5.00114681106553,0.0455,0.0002661,5.00114681,359.391,288.6106,71.9684
